INTELSAT 9 (IS-9)       
1 26451U 00043A   25176.85902767 -.00000073  00000+0  00000+0 0  9999
2 26451   9.6013  52.4312 0001750 115.9853  68.1523  0.99428389 40563
INTELSAT 10 (IS-10)     
1 26766U 01019A   25176.78447583 -.00000018  00000+0  00000+0 0  9993
2 26766   8.2201  62.8911 0002981  16.9183 182.8388  1.00271745 42042
INTELSAT 902 (IS-902)   
1 26900U 01039A   25175.48997314 -.00000287  00000+0  00000+0 0  9991
2 26900   5.2121  76.1748 0004267  18.4726 304.5545  1.00271920 87182
INTELSAT 904 (IS-904)   
1 27380U 02007A   25177.02752995 -.00000207  00000+0  00000+0 0  9998
2 27380   6.0275  73.4669 0002509  31.0993 152.2992  1.00308223 48199
DIRECTV 5 (TEMPO 1)     
1 27426U 02023A   25177.40572950 -.00000064  00000+0  00000+0 0  9991
2 27426   3.9670  79.7947 0003286  31.8354 199.0823  1.00272026 84558
INTELSAT 905 (IS-905)   
1 27438U 02027A   25177.25760694  .00000086  00000+0  00000+0 0  9998
2 27438   5.8568  74.1011 0002209  22.1856 133.8810  1.00274252 47793
GALAXY 3C (G-3C)        
1 27445U 02030A   25177.55145944 -.00000159  00000+0  00000+0 0  9990
2 27445   2.8174  82.4738 0003008  49.3987 246.7175  1.00271324 42928
INTELSAT 906 (IS-906)   
1 27513U 02041A   25177.36889744  .00000005  00000+0  00000+0 0  9999
2 27513   4.8966  77.3359 0004026   8.6779  25.6704  1.00270676 83460
GALAXY 23 (G-23)        
1 27854U 03034A   25177.33655990  .00000102  00000+0  00000+0 0  9999
2 27854   2.2764  84.1145 0000427 175.6829 345.3199  0.99700441 80177
GALAXY 13 (HORIZONS-1)  
1 27954U 03044A   25177.54059937  .00000127  00000+0  00000+0 0  9990
2 27954   0.4984  89.4768 0002096 355.1901 234.8510  1.00270847 43006
INTELSAT 10-02          
1 28358U 04022A   25177.42718896 -.00000016  00000+0  00000+0 0  9997
2 28358   0.0175 350.9730 0000500 103.5154 333.1203  1.00269743 76989
XM-3 (RHYTHM)           
1 28626U 05008A   25176.26830490 -.00000200  00000+0  00000+0 0  9991
2 28626   0.0477 157.4400 0000087 148.8954 337.5624  1.00269244 39043
DIRECTV 8               
1 28659U 05019A   25177.54668101 -.00000004  00000+0  00000+0 0  9991
2 28659   0.0166  58.9222 0002714  36.7837 256.9508  1.00271510 73508
GALAXY 28 (G-28)        
1 28702U 05022A   25177.55276264 -.00000193  00000+0  00000+0 0  9999
2 28702   2.3818  83.4204 0002554  29.6854 272.1101  1.00270739 48414
GALAXY 16 (G-16)        
1 29236U 06023A   25176.97973059 -.00000129  00000+0  00000+0 0  9994
2 29236   0.0244 307.8922 0002023 160.9766  59.1741  1.00264698 69409
DIRECTV 9S              
1 29494U 06043A   25177.55024310 -.00000119  00000+0  00000+0 0  9993
2 29494   1.5023  85.3339 0002735  13.8798 272.5844  1.00270870 47812
GALAXY 17 (G-17)        
1 31307U 07016B   25177.55345767 -.00000212  00000+0  00000+0 0  9996
2 31307   2.0715  84.5001 0002438  43.1730 261.4756  1.00270843 66237
DIRECTV 10              
1 31862U 07032A   25177.47850822 -.00000107  00000+0  00000+0 0  9997
2 31862   0.0126 259.0056 0000506 316.4548 128.8508  1.00270947 42020
INTELSAT 11 (IS-11)     
1 32253U 07044B   25177.54841861  .00000046  00000+0  00000+0 0  9997
2 32253   2.6381  83.1102 0003647  76.0821 202.9229  0.99046760 64924
HORIZONS-2              
1 32388U 07063B   25177.55554281 -.00000259  00000+0  00000+0 0  9992
2 32388   1.6838  85.1354 0001923  29.8043 286.1608  1.00269867 64245
DIRECTV 11              
1 32729U 08013A   25176.40848726 -.00000127  00000+0  00000+0 0  9994
2 32729   0.0034  94.6945 0000548 165.0292  61.9323  1.00270924 42017
GALAXY 18 (G-18)        
1 32951U 08024A   25177.54589909  .00000020  00000+0  00000+0 0  9995
2 32951   0.0127  58.3373 0002681  35.9915 254.0865  1.00271809 42284
INTELSAT 25 (IS-25)     
1 33153U 08034A   25177.49266972 -.00000230  00000+0  00000+0 0  9991
2 33153   1.7904  84.8010 0002912  20.6750 315.2420  1.00272888 62127
GALAXY 19 (G-19)        
1 33376U 08045A   25176.97999123 -.00000141  00000+0  00000+0 0  9994
2 33376   0.0139 306.2578 0002658 155.8874  67.9946  1.00264464 61338
FM-5                    
1 35493U 09034A   25177.05350138 -.00000204  00000+0  00000+0 0  9992
2 35493   0.0104  28.5213 0000405 277.4416 261.5551  1.00269996 43073
INTELSAT 14 (IS-14)     
1 36097U 09064A   25177.34726422 -.00000278  00000+0  00000+0 0  9992
2 36097   0.0117  31.4402 0002301  77.7722 245.5124  1.00269968 57037
INTELSAT 15 (IS-15)     
1 36106U 09067A   25176.97892140 -.00000189  00000+0  00000+0 0  9996
2 36106   0.0178 346.8602 0001886 111.8629 253.1785  1.00270364 37659
DIRECTV 12              
1 36131U 09075A   25177.54998247 -.00000108  00000+0  00000+0 0  9993
2 36131   0.0042  98.3823 0000274 341.1677 290.6296  1.00270494 42981
INTELSAT 16 (IS-16)     
1 36397U 10006A   25177.55519529 -.00000249  00000+0  00000+0 0  9992
2 36397   0.0258 302.1316 0001906 171.2633 285.1903  1.00270212 56082
XM-5                    
1 37185U 10053A   25177.40468693 -.00000027  00000+0  00000+0 0  9993
2 37185   0.0391 280.1225 0000354  26.7140 358.4132  1.00271161 53914
INTELSAT 17 (IS-17)     
1 37238U 10065B   25177.15183345 -.00000006  00000+0  00000+0 0  9992
2 37238   0.0297  70.1067 0002664  43.6476 281.4056  1.00271751 49678
INTELSAT 28 (IS-28)     
1 37392U 11016A   25177.42128110 -.00000230  00000+0  00000+0 0  9998
2 37392   0.8862  87.3778 0003738   1.2269 306.1445  1.00270335 49716
INTELSAT 18 (IS-18)     
1 37834U 11056A   25177.59589999  .00000048  00000+0  00000+0 0  9993
2 37834   0.0176  24.5228 0001734  85.5995 199.3569  1.00273298 50245
INTELSAT 22 (IS-22)     
1 38098U 12011A   25177.51326037 -.00000064  00000+0  00000+0 0  9991
2 38098   0.0380  59.1933 0001691  64.7362  47.8174  1.00270423  3627
INTELSAT 19 (IS-19)     
1 38356U 12030A   25177.46047941 -.00000062  00000+0  00000+0 0  9995
2 38356   0.0172   8.1984 0002771  92.2053 146.1894  1.00271150 46881
INTELSAT 20 (IS-20)     
1 38740U 12043A   25177.22690067 -.00000030  00000+0  00000+0 0  9998
2 38740   0.0414  74.9793 0001120 100.2559 249.5355  1.00273876 47174
INTELSAT 21 (IS-21)     
1 38749U 12045A   25177.34465781 -.00000289  00000+0  00000+0 0  9991
2 38749   0.0171  27.3221 0001745  84.5870 228.8673  1.00269810 46955
INTELSAT 23 (IS-23)     
1 38867U 12057A   25177.48841258 -.00000289  00000+0  00000+0 0  9997
2 38867   0.0417 105.5889 0001299 281.7120  10.3782  1.00267998 46388
FM-6                    
1 39360U 13058A   25177.40451317 -.00000021  00000+0  00000+0 0  9997
2 39360   0.0439  72.9270 0002061  97.7379 133.5510  1.00272540 42495
INTELSAT 30 (IS-30)     
1 40271U 14062A   25177.33727297 -.00000155  00000+0  00000+0 0  9999
2 40271   0.0165  37.3898 0001087 344.9461 278.7092  1.00271295  3211
DIRECTV 14              
1 40333U 14078B   25176.40848726 -.00000127  00000+0  00000+0 0  9992
2 40333   0.0270  26.5171 0000541 176.0738 119.0380  1.00269550 38672
DIRECTV 15              
1 40663U 15026A   25177.54989559 -.00000107  00000+0  00000+0 0  9996
2 40663   0.0172  29.5754 0000128 210.1308 130.2966  1.00269013 36894
SKY MEXICO-1            
1 40664U 15026B   25177.34048755 -.00000238  00000+0  00000+0 0  9994
2 40664   0.0134 358.0045 0001829 104.7852 215.7112  1.00269656 36881
INTELSAT 34 (IS-34)     
1 40874U 15039A   25177.55927867 -.00000290  00000+0  00000+0 0  9992
2 40874   0.0086 323.1635 0001428  13.4310  84.1619  1.00270006 36058
INTELSAT 31 (IS-31)     
1 41581U 16035A   25177.55145944 -.00000155  00000+0  00000+0 0  9993
2 41581   0.0161  18.3673 0002132 216.0653 143.9441  1.00268664 33115
INTELSAT 36 (IS-36)     
1 41747U 16053A   25177.15155568 -.00000029  00000+0  00000+0 0  9996
2 41747   0.0158  31.1517 0001885 297.0997  69.3163  1.00270627 32370
INTELSAT 32E (IS-32E)   
1 41945U 17007B   25177.18586365 -.00000273  00000+0  00000+0 0  9993
2 41945   0.0212  67.5518 0000355 246.0351 344.6929  1.00270417 30659
INTELSAT 35E (IS-35E)   
1 42818U 17041A   25177.49206156 -.00000243  00000+0  00000+0 0  9999
2 42818   0.0230 289.2748 0001649 158.2276 330.0082  1.00271240 29241
INTELSAT 37E (IS-37E)   
1 42950U 17059A   25177.40733457 -.00000145  00000+0  00000+0 0  9996
2 42950   0.0134  61.5557 0002418  59.3099 282.5443  1.00271461 28492
AZERSPACE 2 (IS-38)     
1 43632U 18074A   25177.40322681  .00000131  00000+0  00000+0 0  9999
2 43632   0.0178  20.0599 0001160  74.8010  10.1694  1.00272058 24887
HORIZONS-3E             
1 43633U 18074B   25177.47392220 -.00000036  00000+0  00000+0 0  9998
2 43633   0.0247 174.9448 0000865 105.7060 333.8046  1.00267136 24772
AT&T T-16               
1 44333U 19034A   25177.05119369 -.00000118  00000+0  00000+0 0  9999
2 44333   0.0306  75.3294 0000324 231.0802 245.5713  1.00268880 22063
INTELSAT 39 (IS-39)     
1 44476U 19049B   25177.22568435  .00000029  00000+0  00000+0 0  9994
2 44476   0.0187  31.1906 0001269 285.1464 101.4380  1.00271423 21551
GALAXY 30 (G-30)        
1 46114U 20056C   25177.54555156  .00000032  00000+0  00000+0 0  9990
2 46114   0.0250  22.5124 0001831  73.4190 250.3637  1.00270796 17723
GALAXY 33 (G-33)        
1 54026U 22128A   25177.54390083  .00000074  00000+0  00000+0 0  9995
2 54026   0.0172  22.5166 0001639  72.6658 242.5323  1.00270534 10176
GALAXY 34 (G-34)        
1 54027U 22128B   25177.54468275  .00000054  00000+0  00000+0 0  9993
2 54027   0.0154  18.1870 0001320  87.0342 236.7556  1.00273260 10348
GALAXY 31 (G-31)        
1 54243U 22153A   25177.26073462  .00000009  00000+0  00000+0 0  9990
2 54243   0.0155  30.8910 0000383 145.5565  71.0590  1.00271622  3564
GALAXY 32 (G-32)        
1 54244U 22153B   25177.55224135 -.00000179  00000+0  00000+0 0  9997
2 54244   0.0110  25.4323 0001816  14.1562 343.1288  1.00271709  9574
GALAXY 35 (G-35)        
1 54741U 22170A   25177.55180696 -.00000167  00000+0  00000+0 0  9998
2 54741   0.0157  14.8625 0001760  80.3444 285.2619  1.00269294  9329
GALAXY 36 (G-36)        
1 54742U 22170B   25177.55267575 -.00000190  00000+0  00000+0 0  9997
2 54742   0.0158  79.3176 0002463  17.5526 288.0065  1.00271577  9202
GALAXY 37 (G-37)        
1 57493U 23112A   25177.54511715  .00000043  00000+0  00000+0 0  9993
2 57493   0.0136  38.8313 0001707  54.2166 251.1016  1.00270889  6978
